{"fetched_at":"2026-07-12T05:52:54.416Z","source":"https://celestrak.org/NORAD/elements/gp.php?NAME=GHGSAT&FORMAT=JSON","constellation":"ghgsat","records":[{"OBJECT_NAME":"GHGSAT-C1","OBJECT_ID":"2020-061G","EPOCH":"2026-07-11T15:59:11.959296","CLASSIFICATION_TYPE":"U","MEAN_MOTION":15.73245697,"ECCENTRICITY":0.0000831,"INCLINATION":97.2101,"RA_OF_ASC_NODE":278.6254,"ARG_OF_PERICENTER":178.4625,"MEAN_ANOMALY":181.6642,"EPHEMERIS_TYPE":0,"NORAD_CAT_ID":46278,"ELEMENT_SET_NO":999,"REV_AT_EPOCH":32732,"BSTAR":0.00019374,"MEAN_MOTION_DOT":0.00026543,"MEAN_MOTION_DDOT":0},{"OBJECT_NAME":"GHGSAT-C2","OBJECT_ID":"2021-006DA","EPOCH":"2026-07-11T16:17:31.869312","CLASSIFICATION_TYPE":"U","MEAN_MOTION":15.38081098,"ECCENTRICITY":0.0006833,"INCLINATION":97.2141,"RA_OF_ASC_NODE":239.5247,"ARG_OF_PERICENTER":84.5848,"MEAN_ANOMALY":275.6176,"EPHEMERIS_TYPE":0,"NORAD_CAT_ID":47509,"ELEMENT_SET_NO":999,"REV_AT_EPOCH":30361,"BSTAR":0.00010509,"MEAN_MOTION_DOT":0.0000386,"MEAN_MOTION_DDOT":0},{"OBJECT_NAME":"GHGSAT-C3","OBJECT_ID":"2022-057F","EPOCH":"2026-07-11T21:19:12.328032","CLASSIFICATION_TYPE":"U","MEAN_MOTION":15.34653516,"ECCENTRICITY":0.0006581,"INCLINATION":97.662,"RA_OF_ASC_NODE":339.4789,"ARG_OF_PERICENTER":45.6072,"MEAN_ANOMALY":314.5708,"EPHEMERIS_TYPE":0,"NORAD_CAT_ID":52737,"ELEMENT_SET_NO":999,"REV_AT_EPOCH":22932,"BSTAR":0.00012194,"MEAN_MOTION_DOT":0.00004011,"MEAN_MOTION_DDOT":0},{"OBJECT_NAME":"GHGSAT-C5","OBJECT_ID":"2022-057N","EPOCH":"2026-07-11T20:41:53.858688","CLASSIFICATION_TYPE":"U","MEAN_MOTION":15.34629663,"ECCENTRICITY":0.0007276,"INCLINATION":97.6706,"RA_OF_ASC_NODE":341.0547,"ARG_OF_PERICENTER":42.5711,"MEAN_ANOMALY":317.6094,"EPHEMERIS_TYPE":0,"NORAD_CAT_ID":52744,"ELEMENT_SET_NO":999,"REV_AT_EPOCH":22932,"BSTAR":0.00011802,"MEAN_MOTION_DOT":0.00003877,"MEAN_MOTION_DDOT":0},{"OBJECT_NAME":"GHGSAT-C4","OBJECT_ID":"2022-057Q","EPOCH":"2026-07-11T20:15:06.924960","CLASSIFICATION_TYPE":"U","MEAN_MOTION":15.34639924,"ECCENTRICITY":0.0006465,"INCLINATION":97.6546,"RA_OF_ASC_NODE":338.2391,"ARG_OF_PERICENTER":30.5707,"MEAN_ANOMALY":329.5911,"EPHEMERIS_TYPE":0,"NORAD_CAT_ID":52746,"ELEMENT_SET_NO":999,"REV_AT_EPOCH":22932,"BSTAR":0.00012151,"MEAN_MOTION_DOT":0.00003995,"MEAN_MOTION_DDOT":0},{"OBJECT_NAME":"GHGSAT-C8","OBJECT_ID":"2023-054J","EPOCH":"2026-07-11T20:00:36.211680","CLASSIFICATION_TYPE":"U","MEAN_MOTION":15.53701687,"ECCENTRICITY":0.0003409,"INCLINATION":97.2969,"RA_OF_ASC_NODE":102.4865,"ARG_OF_PERICENTER":15.0551,"MEAN_ANOMALY":345.0803,"EPHEMERIS_TYPE":0,"NORAD_CAT_ID":56186,"ELEMENT_SET_NO":999,"REV_AT_EPOCH":18226,"BSTAR":0.00015881,"MEAN_MOTION_DOT":0.00010058,"MEAN_MOTION_DDOT":0},{"OBJECT_NAME":"GHGSAT-C6","OBJECT_ID":"2023-054AC","EPOCH":"2026-07-11T20:44:37.381056","CLASSIFICATION_TYPE":"U","MEAN_MOTION":15.5367948,"ECCENTRICITY":0.0003779,"INCLINATION":97.3031,"RA_OF_ASC_NODE":103.218,"ARG_OF_PERICENTER":325.0549,"MEAN_ANOMALY":35.0456,"EPHEMERIS_TYPE":0,"NORAD_CAT_ID":56204,"ELEMENT_SET_NO":999,"REV_AT_EPOCH":18228,"BSTAR":0.00016188,"MEAN_MOTION_DOT":0.00010247,"MEAN_MOTION_DDOT":0},{"OBJECT_NAME":"GHGSAT-C7","OBJECT_ID":"2023-054AH","EPOCH":"2026-07-11T20:32:29.283072","CLASSIFICATION_TYPE":"U","MEAN_MOTION":15.50398032,"ECCENTRICITY":0.0005263,"INCLINATION":97.298,"RA_OF_ASC_NODE":101.5463,"ARG_OF_PERICENTER":319.9143,"MEAN_ANOMALY":40.172,"EPHEMERIS_TYPE":0,"NORAD_CAT_ID":56209,"ELEMENT_SET_NO":999,"REV_AT_EPOCH":18221,"BSTAR":0.00012385,"MEAN_MOTION_DOT":0.00006945,"MEAN_MOTION_DDOT":0},{"OBJECT_NAME":"GHGSAT-C12","OBJECT_ID":"2025-135B","EPOCH":"2026-07-11T20:43:11.959968","CLASSIFICATION_TYPE":"U","MEAN_MOTION":15.20432703,"ECCENTRICITY":0.0006489,"INCLINATION":97.4766,"RA_OF_ASC_NODE":307.4557,"ARG_OF_PERICENTER":90.1475,"MEAN_ANOMALY":270.0504,"EPHEMERIS_TYPE":0,"NORAD_CAT_ID":64529,"ELEMENT_SET_NO":999,"REV_AT_EPOCH":5857,"BSTAR":0.00010338,"MEAN_MOTION_DOT":0.00002186,"MEAN_MOTION_DDOT":0},{"OBJECT_NAME":"GHGSAT-C13","OBJECT_ID":"2025-135W","EPOCH":"2026-07-11T20:28:32.250720","CLASSIFICATION_TYPE":"U","MEAN_MOTION":15.21380871,"ECCENTRICITY":0.0002026,"INCLINATION":97.4795,"RA_OF_ASC_NODE":308.0547,"ARG_OF_PERICENTER":70.9285,"MEAN_ANOMALY":289.217,"EPHEMERIS_TYPE":0,"NORAD_CAT_ID":64548,"ELEMENT_SET_NO":999,"REV_AT_EPOCH":5860,"BSTAR":0.00015998,"MEAN_MOTION_DOT":0.00003517,"MEAN_MOTION_DDOT":0}]}
